{
"type": "FeatureCollection",
"name": "rudraprayag_tehsil",
"crs": { "type": "name", "properties": { "name": "urn:ogc:def:crs:OGC:1.3:CRS84" } },
"features": [
{ "type": "Feature", "properties": { "District": "RUDRAPRAY>G", "STATE": "UTTARAKHAND", "TEHSIL": "RUDRAPRAY>G", "Shape_Leng": 125341.247908, "Shape_Area": 492317328.02499992 }, "geometry": { "type": "MultiPolygon", "coordinates": [ [ [ [ 78.95723085440504, 30.582778056973059 ], [ 78.96058781660453, 30.582568408861952 ], [ 78.961005133064063, 30.582987582032612 ], [ 78.961745657146906, 30.583244147811747 ], [ 78.96279340994613, 30.58327951521953 ], [ 78.964054925919854, 30.583278677753935 ], [ 78.965118289094718, 30.583192228469592 ], [ 78.966076934608523, 30.582600688011272 ], [ 78.967623432987935, 30.580899302524443 ], [ 78.968983255896646, 30.580136112556353 ], [ 78.970165437423077, 30.579007724356075 ], [ 78.971478299947378, 30.578348295700266 ], [ 78.973323127013316, 30.577864281189758 ], [ 78.97572526232544, 30.577028093326803 ], [ 78.977011692183297, 30.576089006758462 ], [ 78.977842787884839, 30.573350664430617 ], [ 78.978158743351287, 30.571438185543368 ], [ 78.978105711127071, 30.570608280618067 ], [ 78.977484319765693, 30.569499287721541 ], [ 78.977122578946947, 30.567501664888198 ], [ 78.976911269088959, 30.564831843679102 ], [ 78.977430765576173, 30.563252881747861 ], [ 78.978159336802946, 30.56222846579282 ], [ 78.980105833131987, 30.559782417708085 ], [ 78.980922341865707, 30.558149085091717 ], [ 78.981091219083723, 30.55533912294543 ], [ 78.982110478972231, 30.553344872932168 ], [ 78.98249772954911, 30.550187420441972 ], [ 78.983037505232602, 30.548211531050313 ], [ 78.983765443065764, 30.546790249220859 ], [ 78.983764008116594, 30.545504872590843 ], [ 78.984347160630506, 30.545035305032116 ], [ 78.985348305011499, 30.545697435690684 ], [ 78.986213686516791, 30.545989873897149 ], [ 78.987193171318509, 30.545867294699118 ], [ 78.988213952355096, 30.545361228907939 ], [ 78.989537405061384, 30.545292406190512 ], [ 78.991992275591926, 30.545777352877678 ], [ 78.993676736040186, 30.546885334888579 ], [ 78.995141522428156, 30.547285335421162 ], [ 78.996162098897202, 30.546711592719124 ], [ 78.997640590752368, 30.545636843252158 ], [ 78.998583133988575, 30.545099250272632 ], [ 78.99989326143789, 30.544882564339186 ], [ 79.001466252525901, 30.544294995943655 ], [ 79.002631969856864, 30.54365062595808 ], [ 79.003614381361089, 30.542407900987271 ], [ 79.004030944259114, 30.5413245861122 ], [ 79.004357404037719, 30.539752077998454 ], [ 79.004554206888713, 30.538694559140723 ], [ 79.004760706020804, 30.538370060614149 ], [ 79.00523398978514, 30.538020044259916 ], [ 79.006052895837939, 30.537590695803761 ], [ 79.007297146324717, 30.536919614909067 ], [ 79.00770769653974, 30.536569208617909 ], [ 79.008244676562356, 30.536097408517552 ], [ 79.008753270857341, 30.535258951290125 ], [ 79.009102855926884, 30.534690993350914 ], [ 79.00967680066185, 30.533527162982111 ], [ 79.00990204181187, 30.532822708474068 ], [ 79.00978145311457, 30.532224738733071 ], [ 79.009206715437458, 30.531556138584925 ], [ 79.006580998922175, 30.52858108903823 ], [ 79.002825960309835, 30.523753027454365 ], [ 79.000777983599917, 30.521107143380476 ], [ 78.999909584382962, 30.51993445383513 ], [ 78.999275251498986, 30.518898936449606 ], [ 78.999173522064709, 30.517920984472624 ], [ 78.999029772970573, 30.516331939934528 ], [ 78.998934950629035, 30.514512431563215 ], [ 78.998914174976889, 30.513222763361338 ], [ 78.998890280813285, 30.512313148071215 ], [ 78.998989240605951, 30.511716492609946 ], [ 78.999557832684872, 30.511204168666222 ], [ 79.000362903414739, 30.510530403528112 ], [ 79.001182864545626, 30.509951746083967 ], [ 79.00254014420797, 30.50884697936678 ], [ 79.003710281653483, 30.507618885235548 ], [ 79.004899371850129, 30.506947442581396 ], [ 79.00569206873314, 30.506823330638863 ], [ 79.007110485113827, 30.505902145670621 ], [ 79.007662982583327, 30.505433806589373 ], [ 79.008314307290021, 30.5053427553785 ], [ 79.008755549086942, 30.50506038118726 ], [ 79.009437057474074, 30.504630148995489 ], [ 79.011563919253518, 30.502847860886856 ], [ 79.012367990514932, 30.502282615613396 ], [ 79.012865997015084, 30.501763019643658 ], [ 79.013344053212279, 30.500802130204391 ], [ 79.013425944054404, 30.499882952832348 ], [ 79.013436528025252, 30.499598039507056 ], [ 79.013861823261806, 30.498899327763059 ], [ 79.013693419038006, 30.498109916428039 ], [ 79.013185633315828, 30.495865682929011 ], [ 79.01309082468363, 30.494433636363702 ], [ 79.013154331367787, 30.493549654628175 ], [ 79.01364225639216, 30.492686340753259 ], [ 79.013929272558855, 30.492235566761352 ], [ 79.013963366291151, 30.492025922288644 ], [ 79.01361300078851, 30.491004066738221 ], [ 79.013485858463696, 30.490582223216826 ], [ 79.013699871298314, 30.490140418939983 ], [ 79.014474276726844, 30.489202970935096 ], [ 79.015282315168506, 30.488477492261662 ], [ 79.015548386753792, 30.488083069156481 ], [ 79.015655891004187, 30.487420160834507 ], [ 79.015836824306049, 30.486236444685691 ], [ 79.015955416435062, 30.484996228869218 ], [ 79.016135613679481, 30.484518291487902 ], [ 79.016263663872067, 30.484094421860281 ], [ 79.016063972668817, 30.483377186954819 ], [ 79.015596471993518, 30.482237981251647 ], [ 79.015248054479585, 30.481813695046913 ], [ 79.01405134784342, 30.480976076339072 ], [ 79.013351496641477, 30.480477083366591 ], [ 79.012896233369517, 30.480151951756778 ], [ 79.012734966928704, 30.480036814691132 ], [ 79.013055301727249, 30.479899553577713 ], [ 79.014021783311506, 30.47944932156641 ], [ 79.014665285035321, 30.479084599722391 ], [ 79.01479557912765, 30.4790102565482 ], [ 79.015976004558453, 30.478082183243192 ], [ 79.016869704534514, 30.477480772032102 ], [ 79.018031705346843, 30.476832257305503 ], [ 79.019164628948118, 30.476452096039331 ], [ 79.019516571544372, 30.47600360748806 ], [ 79.018818036511632, 30.474356816778176 ], [ 79.018482010944865, 30.472103739435639 ], [ 79.018547030778208, 30.469751704276682 ], [ 79.019056663691245, 30.46791648023309 ], [ 79.018761695555796, 30.466188824087261 ], [ 79.018341571593936, 30.464700158176839 ], [ 79.017686793432276, 30.463578793379671 ], [ 79.015908699766896, 30.461374164988001 ], [ 79.016079654595472, 30.459721323526555 ], [ 79.016124093653133, 30.457204662542441 ], [ 79.016147134419882, 30.455222398976897 ], [ 79.01661525115324, 30.45322033206001 ], [ 79.017147315531432, 30.452302904654292 ], [ 79.017613575556013, 30.452010112739504 ], [ 79.018417983817585, 30.451900252612472 ], [ 79.019245500688982, 30.452065569867372 ], [ 79.02026066149341, 30.45206638465476 ], [ 79.020960717306735, 30.452141347185705 ], [ 79.021786080735382, 30.451957100607309 ], [ 79.02278355409527, 30.451425716977276 ], [ 79.024416331736148, 30.450673734740963 ], [ 79.025731307692439, 30.450160596959478 ], [ 79.026621725369978, 30.449886131049503 ], [ 79.027002037943802, 30.449611260530055 ], [ 79.027851517070559, 30.448673750918488 ], [ 79.028846664112635, 30.44783116276864 ], [ 79.02960961186983, 30.447464053934429 ], [ 79.030372443662756, 30.447243649779992 ], [ 79.031517476084232, 30.447465459747718 ], [ 79.033466809418229, 30.447559318369141 ], [ 79.034060962546221, 30.446842558670188 ], [ 79.035821767910875, 30.44541178247146 ], [ 79.036540838356501, 30.444530576841327 ], [ 79.037515178231772, 30.443491644378426 ], [ 79.040216798654569, 30.440532451831775 ], [ 79.041279610148933, 30.439342454116172 ], [ 79.041839870856052, 30.438551229122545 ], [ 79.04254095684864, 30.437302323156413 ], [ 79.043380336870413, 30.435742334490484 ], [ 79.043506099980519, 30.434662247406127 ], [ 79.043527926289428, 30.433437667471885 ], [ 79.043736617608758, 30.432880836592638 ], [ 79.043987032058084, 30.432154867501051 ], [ 79.044671829353248, 30.431726794804231 ], [ 79.045650718760328, 30.431204189577972 ], [ 79.046218004601897, 30.429047086032941 ], [ 79.046279848589023, 30.428811917568051 ], [ 79.046363503035252, 30.428297764433793 ], [ 79.046431385487438, 30.42792575429679 ], [ 79.046450186768411, 30.427233426465783 ], [ 79.046538972202725, 30.426805045118055 ], [ 79.046825569792603, 30.426466949892468 ], [ 79.047362124186691, 30.425835790146124 ], [ 79.047508004347264, 30.425632979777639 ], [ 79.047324066532781, 30.424494011817689 ], [ 79.047145582762724, 30.423237791588203 ], [ 79.046454621039246, 30.42169262599586 ], [ 79.045992039748725, 30.420984302248755 ], [ 79.044873572278902, 30.420401748410061 ], [ 79.044067192527393, 30.420105862432528 ], [ 79.043492134498777, 30.420105497521018 ], [ 79.042800184466415, 30.41982545272484 ], [ 79.042014722927533, 30.419391919798482 ], [ 79.041608404725949, 30.419892295187555 ], [ 79.041167905755216, 30.420769270595628 ], [ 79.041042532336661, 30.421342051929976 ], [ 79.041099301229309, 30.421917095248975 ], [ 79.040879909178656, 30.422803230593573 ], [ 79.040801388043192, 30.423292552514258 ], [ 79.040762188656203, 30.423529261270005 ], [ 79.040478293346851, 30.423790669614725 ], [ 79.039947256134411, 30.424051991082585 ], [ 79.03970505337405, 30.424363006218197 ], [ 79.039538062787287, 30.424861311029897 ], [ 79.039431162633591, 30.425055111506644 ], [ 79.039069203674856, 30.425316513292461 ], [ 79.038571964783159, 30.425570989643123 ], [ 79.037569677070252, 30.426052924865871 ], [ 79.036390784176319, 30.426176206453693 ], [ 79.034452014828659, 30.426310144503475 ], [ 79.034084978208412, 30.426424880065046 ], [ 79.033650073986621, 30.426744795854908 ], [ 79.033204868671262, 30.427033203629826 ], [ 79.033048259437706, 30.42749536208424 ], [ 79.032569148609369, 30.427842343206507 ], [ 79.031801267082514, 30.428103323429482 ], [ 79.031028009281371, 30.428443338159585 ], [ 79.030481145929755, 30.428819525727697 ], [ 79.029949878193278, 30.429276977743527 ], [ 79.027903455049071, 30.43029925497763 ], [ 79.026683846288535, 30.429409849065788 ], [ 79.026517442167261, 30.429218078892312 ], [ 79.027884635767279, 30.428289933966987 ], [ 79.028025544095854, 30.427854836325018 ], [ 79.028171478029876, 30.427649759036289 ], [ 79.028533380110687, 30.427492134661655 ], [ 79.028890123433996, 30.427266833578436 ], [ 79.029051595759171, 30.427057277511267 ], [ 79.029234179674063, 30.426633488239101 ], [ 79.02932089729191, 30.425742744968307 ], [ 79.029329348249931, 30.425077501757457 ], [ 79.029064888554046, 30.424164000433386 ], [ 79.02902136339921, 30.42334980903669 ], [ 79.029081464911954, 30.423140195113863 ], [ 79.029575990596442, 30.422989482638691 ], [ 79.030010692586103, 30.422840879814935 ], [ 79.029811007971887, 30.422204831567889 ], [ 79.029499528740487, 30.421394980277825 ], [ 79.029284283655585, 30.420580765330239 ], [ 79.029071572033615, 30.419886039862845 ], [ 79.028975512139525, 30.419696516559373 ], [ 79.02873373404681, 30.419527238885919 ], [ 79.0276872709115, 30.419954923062807 ], [ 79.026320928774794, 30.420165864608844 ], [ 79.024231227874793, 30.420428127392547 ], [ 79.022487645349756, 30.420591432292508 ], [ 79.022227582615912, 30.420467193906916 ], [ 79.021183530657837, 30.420985073039002 ], [ 79.021080958204294, 30.41959580687293 ], [ 79.020461006039127, 30.417775425732533 ], [ 79.02004511236818, 30.41734218142981 ], [ 79.020025119909988, 30.41658671384376 ], [ 79.019526235558743, 30.41595487425052 ], [ 79.018228838007232, 30.414979617241823 ], [ 79.017230389593792, 30.414329303394716 ], [ 79.016629520929058, 30.414184436566806 ], [ 79.015484918282013, 30.413951262454159 ], [ 79.014427111039282, 30.412922024626493 ], [ 79.01374053479968, 30.412668849933482 ], [ 79.013118739299443, 30.412596151927929 ], [ 79.012868753104456, 30.412794465862035 ], [ 79.012308947415391, 30.41311641025813 ], [ 79.011196255179883, 30.412396069542758 ], [ 79.009826088238924, 30.411459055219147 ], [ 79.010305424177488, 30.410954257749566 ], [ 79.0104729665089, 30.410126786496829 ], [ 79.010783577603746, 30.409227326866077 ], [ 79.010329563516549, 30.405878038749076 ], [ 79.010232641323611, 30.404159566432565 ], [ 79.009306539331348, 30.404097888552226 ], [ 79.008013997763044, 30.403693081199176 ], [ 79.007150881067474, 30.403200658439427 ], [ 79.006516600599198, 30.402776179272919 ], [ 79.006384140731356, 30.402568585813064 ], [ 79.006431235476711, 30.402392715099285 ], [ 79.006527581160242, 30.402320627369424 ], [ 79.00682666967181, 30.402372733979639 ], [ 79.007174995250566, 30.402621135716785 ], [ 79.007833043581428, 30.402716476552392 ], [ 79.008254513945957, 30.40273714815002 ], [ 79.008493941972645, 30.402642621206514 ], [ 79.008913560223775, 30.402020532998652 ], [ 79.009333158160103, 30.401387289087197 ], [ 79.010091245260909, 30.400524180984167 ], [ 79.010607173244694, 30.399818842368703 ], [ 79.010732242765954, 30.399663280513895 ], [ 79.010889138098619, 30.39893728883413 ], [ 79.010434800697865, 30.398145413998286 ], [ 79.009727786540168, 30.397666655239302 ], [ 79.00947046462484, 30.397407108617436 ], [ 79.009470981448544, 30.396992169049103 ], [ 79.009544237197318, 30.396658485132519 ], [ 79.01008282660338, 30.396577752226797 ], [ 79.011125927652955, 30.396639589503849 ], [ 79.012132515981065, 30.396795997667937 ], [ 79.012983273223597, 30.396713312733539 ], [ 79.012336157171646, 30.396169289137035 ], [ 79.011333381168058, 30.394916809425311 ], [ 79.01098565017034, 30.394192677270638 ], [ 79.01103340832789, 30.393412441986257 ], [ 79.011237524058643, 30.392375265825621 ], [ 79.010874359774547, 30.391513451277653 ], [ 79.010804545040898, 30.391123219327508 ], [ 79.012211028767908, 30.390671691513653 ], [ 79.013575311289316, 30.390462730464623 ], [ 79.014766329925166, 30.390374907431088 ], [ 79.016318975388373, 30.390112753405688 ], [ 79.017722685702935, 30.389922600570785 ], [ 79.017858473529571, 30.389480680777602 ], [ 79.018069831638243, 30.388820177197172 ], [ 79.017948066832005, 30.388409610684054 ], [ 79.016981452742911, 30.38748647149567 ], [ 79.016279731071663, 30.386931152938995 ], [ 79.014569438737496, 30.385757027709619 ], [ 79.012871368451712, 30.385345213257089 ], [ 79.012156319581848, 30.385098790794228 ], [ 79.010380575692494, 30.38438460937104 ], [ 79.009392772582771, 30.383783907531306 ], [ 79.008504158461292, 30.382993833737256 ], [ 79.007652464630084, 30.381761779633017 ], [ 79.007010354066452, 30.381431945581969 ], [ 79.006557941649547, 30.381386188331852 ], [ 79.005143110024378, 30.381243083075692 ], [ 79.004129190991208, 30.38083846522154 ], [ 79.003198748036397, 30.380258002858767 ], [ 79.001340264298477, 30.37918063209122 ], [ 78.999867022233033, 30.378060628923734 ], [ 78.999035971109294, 30.377013496259664 ], [ 78.998577496134843, 30.376552926155334 ], [ 78.997743970939226, 30.375566014766342 ], [ 78.996529870986748, 30.373880297536591 ], [ 78.995663710181759, 30.371698189716554 ], [ 78.994833378598301, 30.369060453819092 ], [ 78.994604024386163, 30.368654763880258 ], [ 78.994593692508488, 30.368654699949481 ], [ 78.994088191088792, 30.367892945170503 ], [ 78.993406438156583, 30.367627528855525 ], [ 78.991768023949078, 30.367601924514606 ], [ 78.990483282283407, 30.367621103603479 ], [ 78.989511605463548, 30.368451861287099 ], [ 78.988659363564722, 30.369156185445284 ], [ 78.987978100654885, 30.369265035263403 ], [ 78.987468242565285, 30.369148221458932 ], [ 78.985511932828828, 30.368626707599564 ], [ 78.984435183449776, 30.368609561736772 ], [ 78.984128356756656, 30.368636899886003 ], [ 78.983223135355416, 30.3684437315191 ], [ 78.982660740276373, 30.367939032174025 ], [ 78.982311754693797, 30.367483754692131 ], [ 78.982082735521516, 30.3672584251748 ], [ 78.981082920872964, 30.36622191215708 ], [ 78.979781705542067, 30.365424674190347 ], [ 78.978932812065068, 30.364360931863363 ], [ 78.978629023247791, 30.362385636199384 ], [ 78.978491482342093, 30.360198266634551 ], [ 78.978152813216894, 30.359648320584398 ], [ 78.976070525199077, 30.357764662683142 ], [ 78.974909612105265, 30.356669567984653 ], [ 78.97471137060613, 30.356096909645601 ], [ 78.974741437490366, 30.355000906784234 ], [ 78.97521865895817, 30.353733190063501 ], [ 78.975856837014518, 30.35230292138483 ], [ 78.976017168684777, 30.351423313524926 ], [ 78.976036536273583, 30.350092723440369 ], [ 78.975914504979244, 30.347684320499067 ], [ 78.975788669145615, 30.346674171542261 ], [ 78.974621298311007, 30.344275615373661 ], [ 78.973918891667452, 30.343879230915771 ], [ 78.973617196004611, 30.343829874912473 ], [ 78.971895262891451, 30.343132001590316 ], [ 78.969955292502178, 30.342704998692639 ], [ 78.968207274391816, 30.341867399776589 ], [ 78.967733643443566, 30.341470792702079 ], [ 78.967520067111039, 30.341010923025713 ], [ 78.967195725467661, 30.339026598029037 ], [ 78.967366205156182, 30.337849345804905 ], [ 78.968212495391526, 30.336477616117367 ], [ 78.968565221794719, 30.335548189247564 ], [ 78.968642458141616, 30.33482647834629 ], [ 78.968225615352438, 30.333911180695488 ], [ 78.967928520805273, 30.333095110960286 ], [ 78.967537592961506, 30.332058005204409 ], [ 78.967609534113365, 30.331164913861848 ], [ 78.968055439724822, 30.329834050614242 ], [ 78.968220708987701, 30.328746983460579 ], [ 78.968234108446907, 30.326397108681181 ], [ 78.967702041057109, 30.324602404082334 ], [ 78.967004526014009, 30.323705323267948 ], [ 78.966619363100961, 30.323250103496711 ], [ 78.966087943771001, 30.322068712998519 ], [ 78.966079435129856, 30.321987512082266 ], [ 78.965925372578553, 30.320517353043122 ], [ 78.965982043447411, 30.319985028550104 ], [ 78.966387139321711, 30.319551838837235 ], [ 78.967125049384435, 30.319131826295113 ], [ 78.968216288101829, 30.318666510335586 ], [ 78.969499631570912, 30.317889796490643 ], [ 78.970133335369553, 30.317289442174637 ], [ 78.97038747946813, 30.316707435749965 ], [ 78.970651531862998, 30.315561622144926 ], [ 78.971111756036635, 30.313094184694357 ], [ 78.971702344068149, 30.310987443227752 ], [ 78.971961797113821, 30.310536212031327 ], [ 78.97228388584648, 30.310305914793602 ], [ 78.972678814460949, 30.310210944012777 ], [ 78.97311553140112, 30.310197063439592 ], [ 78.973723961559699, 30.310516813964966 ], [ 78.974119695180676, 30.311129911204695 ], [ 78.974474068190631, 30.311950575547396 ], [ 78.974729158415599, 30.31238329668728 ], [ 78.975171395896595, 30.312667155515069 ], [ 78.976008335421412, 30.31272061804178 ], [ 78.976964704298254, 30.312543958597786 ], [ 78.978773299512923, 30.312154674329832 ], [ 78.979225251085964, 30.311793424636061 ], [ 78.97957118985849, 30.309650824625312 ], [ 78.97967784759966, 30.307224177591937 ], [ 78.979530991858439, 30.306006529270995 ], [ 78.979530404295772, 30.305483333441234 ], [ 78.979768981738417, 30.304978005891041 ], [ 78.98056899167463, 30.30457586583351 ], [ 78.981353520375649, 30.304209925141055 ], [ 78.981431072338779, 30.303831045445968 ], [ 78.981103252704941, 30.303488483196482 ], [ 78.979168818038502, 30.302709741162136 ], [ 78.978315960317289, 30.302412790575712 ], [ 78.977811430960415, 30.302020739972434 ], [ 78.97766537743037, 30.301592448602744 ], [ 78.977929758593021, 30.300924708921237 ], [ 78.978362775029851, 30.300656313534642 ], [ 78.978979028642243, 30.300274337952903 ], [ 78.979103237437542, 30.299760058274057 ], [ 78.978915395476278, 30.299061126091939 ], [ 78.977448210412376, 30.297646057851455 ], [ 78.977603381304974, 30.29698292865298 ], [ 78.978309560336498, 30.296341917921296 ], [ 78.978870393627076, 30.295818309592104 ], [ 78.979244129455765, 30.295403065098945 ], [ 78.979560812945053, 30.295005840603075 ], [ 78.979720815636966, 30.293963819150981 ], [ 78.979668152354137, 30.293291878840677 ], [ 78.979936126357259, 30.29121691786121 ], [ 78.979981556860437, 30.289913386560293 ], [ 78.979496632568754, 30.288452446055317 ], [ 78.979308746002758, 30.287672299792817 ], [ 78.977623415596369, 30.286726788266787 ], [ 78.976552650930302, 30.2861365213091 ], [ 78.975689437346745, 30.285681656866416 ], [ 78.973645289843574, 30.283964780442872 ], [ 78.971024455423688, 30.282374612108885 ], [ 78.969880221669129, 30.281428270666478 ], [ 78.968698745499822, 30.279552833482811 ], [ 78.967220812513133, 30.27739339917628 ], [ 78.966425491736459, 30.277069211321219 ], [ 78.964547893448113, 30.275311549696941 ], [ 78.962624302654604, 30.274325058273458 ], [ 78.96078944785377, 30.273735416747048 ], [ 78.960030618982728, 30.273510459419782 ], [ 78.957910052952982, 30.273096899441594 ], [ 78.95538945724698, 30.272674428894931 ], [ 78.954854004019765, 30.272336489761283 ], [ 78.951895982365642, 30.270701096437406 ], [ 78.949847958185984, 30.269822730731182 ], [ 78.947883266384338, 30.269106729472128 ], [ 78.94578383634196, 30.268882337681706 ], [ 78.944749848845433, 30.268882937850368 ], [ 78.943809572563566, 30.269230706643675 ], [ 78.942069661846347, 30.270435929572788 ], [ 78.940807217022112, 30.270734214757262 ], [ 78.939285274239609, 30.271605507602086 ], [ 78.938703363091378, 30.271637368090865 ], [ 78.936915553153099, 30.271349519188707 ], [ 78.935818887955065, 30.270899024380782 ], [ 78.934987096071197, 30.270313095752321 ], [ 78.934565986244905, 30.269965961105981 ], [ 78.93465935674412, 30.269550968193204 ], [ 78.93492389240987, 30.268932906418659 ], [ 78.934876753061175, 30.268260951509021 ], [ 78.934335642819406, 30.267020819409328 ], [ 78.933664531608883, 30.265686100017877 ], [ 78.932494589137491, 30.264283902591377 ], [ 78.930378240138296, 30.261416289244238 ], [ 78.929338074155837, 30.25966220922415 ], [ 78.92931152183553, 30.258651847252921 ], [ 78.929170290383141, 30.256915478124469 ], [ 78.929195695273151, 30.255878110138195 ], [ 78.929221073855373, 30.254795566735684 ], [ 78.92882009543446, 30.253095327567319 ], [ 78.928108129061471, 30.252784468152214 ], [ 78.927058638967083, 30.25255029361837 ], [ 78.926045538866092, 30.252658999572457 ], [ 78.925313162865862, 30.252826163184089 ], [ 78.925048367353298, 30.253304317169125 ], [ 78.925064908192383, 30.255126477091931 ], [ 78.924732937876854, 30.256164010153014 ], [ 78.92371539612202, 30.257612249116843 ], [ 78.923050838183528, 30.258699508863625 ], [ 78.92212130796274, 30.259610895078826 ], [ 78.919695341745793, 30.260649125595044 ], [ 78.920080235412996, 30.261343552139095 ], [ 78.919956061668003, 30.262534332667922 ], [ 78.920044708019759, 30.263292077395537 ], [ 78.920367329996139, 30.264347378595978 ], [ 78.920367486826279, 30.264568399018589 ], [ 78.920170122927644, 30.264789477016116 ], [ 78.918881708713457, 30.265177767368325 ], [ 78.918190885896422, 30.265651598554978 ], [ 78.917655976435853, 30.266350866261778 ], [ 78.917313179562584, 30.266815580789178 ], [ 78.916102793028756, 30.267501466541724 ], [ 78.913609209680672, 30.268751651088472 ], [ 78.913115689764055, 30.268914134244934 ], [ 78.912512951147917, 30.268954905767284 ], [ 78.912149113174578, 30.268797199274079 ], [ 78.911515096786019, 30.26857632236926 ], [ 78.911239693844678, 30.268567435123462 ], [ 78.910548658481872, 30.268811159074648 ], [ 78.909857972754068, 30.269772065980735 ], [ 78.909525465769789, 30.269952535143517 ], [ 78.909047423966854, 30.270020283929373 ], [ 78.908491449178356, 30.270002465933612 ], [ 78.908034158210256, 30.269916818740459 ], [ 78.907684820953122, 30.269712769325334 ], [ 78.907270155225959, 30.269470560204482 ], [ 78.906111386973606, 30.269358056317071 ], [ 78.905529464296109, 30.269461946008168 ], [ 78.904760428791491, 30.269638000306511 ], [ 78.902806817742871, 30.270112017719779 ], [ 78.901757198408319, 30.270373854791181 ], [ 78.901258461252965, 30.270622038991061 ], [ 78.900546672707463, 30.270897308552598 ], [ 78.899855557802681, 30.27082980693605 ], [ 78.898857889904775, 30.270924729360399 ], [ 78.898322729036224, 30.271028543496815 ], [ 78.897745939340552, 30.271087267440038 ], [ 78.897189903482996, 30.271146038892446 ], [ 78.896550789541493, 30.271340035223066 ], [ 78.896207922001068, 30.271416803285426 ], [ 78.895818151745289, 30.271425857841077 ], [ 78.89542837255587, 30.27127260167633 ], [ 78.894950361988791, 30.271078692214001 ], [ 78.894716437519648, 30.271060731371279 ], [ 78.894113779588054, 30.271417094173245 ], [ 78.893734620230418, 30.272174945109899 ], [ 78.893454098449226, 30.272684652292678 ], [ 78.89313195894762, 30.272693704216987 ], [ 78.892809728952528, 30.272608020203666 ], [ 78.892430427178383, 30.272472751300722 ], [ 78.891666476464067, 30.271990303139098 ], [ 78.890606317048835, 30.271458184402277 ], [ 78.889650156016415, 30.271354537812112 ], [ 78.889161725317649, 30.271323032700479 ], [ 78.888132902675423, 30.271413378201331 ], [ 78.886948116958351, 30.271670626919065 ], [ 78.886314273960366, 30.271954780852347 ], [ 78.885789452577271, 30.272008972384398 ], [ 78.884526655466985, 30.271982014571623 ], [ 78.8840382149953, 30.271720425795092 ], [ 78.883523772007408, 30.271341609673922 ], [ 78.883201561173195, 30.271301079752863 ], [ 78.882598835165481, 30.271707052452225 ], [ 78.880733406341975, 30.272812177459901 ], [ 78.878327559572426, 30.273714294676488 ], [ 78.876441227763067, 30.274323242612432 ], [ 78.875349967529573, 30.274738240830253 ], [ 78.874804420179274, 30.274959225267178 ], [ 78.873967733499981, 30.275288467764948 ], [ 78.873479248182534, 30.275559038820116 ], [ 78.872569861061649, 30.276402494053983 ], [ 78.872606249854243, 30.276889580608337 ], [ 78.872736104504824, 30.277340647868552 ], [ 78.872762179240581, 30.277746552735632 ], [ 78.87269459273169, 30.277981087568005 ], [ 78.872174838253741, 30.278716322244588 ], [ 78.872216424791176, 30.279153790318567 ], [ 78.872439888018533, 30.280010771526882 ], [ 78.872554232180534, 30.280750405631125 ], [ 78.872263131872742, 30.281115792849452 ], [ 78.871805813042911, 30.281454055152953 ], [ 78.871618742944136, 30.281665994531934 ], [ 78.871790283460868, 30.281972688492118 ], [ 78.872024135406718, 30.282640272713817 ], [ 78.872767229435738, 30.28357839597145 ], [ 78.873032315796578, 30.284218851898974 ], [ 78.872829619461584, 30.284845819876988 ], [ 78.871712208930305, 30.286153786814094 ], [ 78.870662358106259, 30.286920525157392 ], [ 78.869544872524685, 30.288323201049995 ], [ 78.868728873116851, 30.289252301147684 ], [ 78.868292261830078, 30.290172334492915 ], [ 78.86749178942253, 30.290821821988647 ], [ 78.866135155007072, 30.292531126337224 ], [ 78.865599755644155, 30.293681246634428 ], [ 78.863983185322468, 30.295155997908235 ], [ 78.862886416228747, 30.295764797077211 ], [ 78.861716842242231, 30.296802011431048 ], [ 78.860791474240457, 30.298385071017773 ], [ 78.859928535081082, 30.29935017053106 ], [ 78.858862704641368, 30.30104140070776 ], [ 78.858410317712298, 30.302002055959019 ], [ 78.85821780933496, 30.303422813545975 ], [ 78.858305935398832, 30.304311277634621 ], [ 78.8587841100031, 30.305127778807098 ], [ 78.860140446106314, 30.30702673009457 ], [ 78.861024012095115, 30.308118358069599 ], [ 78.860675620035778, 30.308785769314529 ], [ 78.860098524569437, 30.309511922456299 ], [ 78.859640930694411, 30.310440981569563 ], [ 78.858678931901963, 30.312299128225465 ], [ 78.857753446489582, 30.313336347596092 ], [ 78.857810588577749, 30.313593406048625 ], [ 78.85803407235764, 30.313868639994546 ], [ 78.858917685081494, 30.314630917962301 ], [ 78.859863739221097, 30.315366198087155 ], [ 78.862176905746509, 30.317233765907005 ], [ 78.863034658667701, 30.317892332058943 ], [ 78.86569103670638, 30.319786836100402 ], [ 78.866647595487223, 30.320386729578065 ], [ 78.868066774403601, 30.321004743361211 ], [ 78.868877862887828, 30.321325012224175 ], [ 78.86886217434207, 30.321915832046088 ], [ 78.867728698805223, 30.322971205602531 ], [ 78.867141150030307, 30.324549803057756 ], [ 78.866761529200119, 30.325253376149238 ], [ 78.864525759171045, 30.327296353946924 ], [ 78.863776954420914, 30.328175810287895 ], [ 78.860896322752595, 30.330119492145002 ], [ 78.857225230313958, 30.331810420919417 ], [ 78.855228489381943, 30.332486666549759 ], [ 78.85492688495205, 30.332806834560486 ], [ 78.854791603404863, 30.333194734949966 ], [ 78.855155286393654, 30.334529804004433 ], [ 78.856106389225815, 30.337015169580482 ], [ 78.85704705555564, 30.339482339745054 ], [ 78.857088204976051, 30.342319304501405 ], [ 78.857425652696165, 30.345260095697316 ], [ 78.858205453163905, 30.346924445120294 ], [ 78.85701966143813, 30.347745175628237 ], [ 78.853165706197245, 30.34986446709301 ], [ 78.849847176279752, 30.352552008487649 ], [ 78.847412839008157, 30.354238313870606 ], [ 78.845462096402201, 30.355870688698481 ], [ 78.844765374515276, 30.355523164639965 ], [ 78.842503202810406, 30.354823566054407 ], [ 78.840168047770504, 30.355152235463159 ], [ 78.83691708820146, 30.356432282187132 ], [ 78.835158817716291, 30.357396942503811 ], [ 78.836698028351762, 30.358137087593438 ], [ 78.837451907117142, 30.358737114207866 ], [ 78.83801319648444, 30.359900951821587 ], [ 78.838132207624795, 30.36134430995703 ], [ 78.838188368910551, 30.364397750078755 ], [ 78.838213225742692, 30.36740605822661 ], [ 78.838378608759129, 30.37040547704667 ], [ 78.838403452306821, 30.373404786871895 ], [ 78.838459939752681, 30.375637362438809 ], [ 78.838797635245712, 30.376661326249444 ], [ 78.838745440018457, 30.37723855823328 ], [ 78.837683806805273, 30.378496614954127 ], [ 78.836627198195899, 30.380088476500568 ], [ 78.835622422073513, 30.381914827169926 ], [ 78.834805291586818, 30.382924842522833 ], [ 78.834399365547654, 30.383384795994829 ], [ 78.834112920196489, 30.3839980955524 ], [ 78.834123085747493, 30.384778351083327 ], [ 78.835063883618204, 30.386659395215883 ], [ 78.835370144051026, 30.388459088530219 ], [ 78.835385420931914, 30.389356665107478 ], [ 78.835369275736454, 30.39071869945333 ], [ 78.835145177654027, 30.391593622111778 ], [ 78.83412513538812, 30.392333021161889 ], [ 78.832303936929819, 30.39299544612555 ], [ 78.829962587754778, 30.393396123621113 ], [ 78.827948726489424, 30.394053912691476 ], [ 78.825737269354804, 30.394684468515337 ], [ 78.824155031198941, 30.395843007023846 ], [ 78.822374706368024, 30.397614879675114 ], [ 78.821245337418546, 30.398304489496702 ], [ 78.818304783504288, 30.399746560726605 ], [ 78.81685250993165, 30.400832827539769 ], [ 78.818667795371027, 30.401893577664875 ], [ 78.819905186145519, 30.403607947920296 ], [ 78.822047991210468, 30.405458035656444 ], [ 78.823971925239647, 30.408029605288966 ], [ 78.825146511327716, 30.410695641828617 ], [ 78.825712832746291, 30.412445764036345 ], [ 78.824062663307714, 30.413559158758556 ], [ 78.823932491531906, 30.413703475914534 ], [ 78.825617543573458, 30.415720193763857 ], [ 78.826215771463708, 30.416139808336489 ], [ 78.82872469379241, 30.414963567885433 ], [ 78.831560169876795, 30.416416795605866 ], [ 78.833032530170158, 30.417175044258038 ], [ 78.834353347973476, 30.419579377488756 ], [ 78.835440047818835, 30.422127998568371 ], [ 78.835975523275494, 30.423472220578297 ], [ 78.837234342048077, 30.42507820553093 ], [ 78.838508915383215, 30.426517276735911 ], [ 78.840736069234353, 30.427776279812484 ], [ 78.8433586928507, 30.429229204032236 ], [ 78.84407142267176, 30.429969037088302 ], [ 78.845382265578067, 30.432517570830019 ], [ 78.846609979068049, 30.434971428635127 ], [ 78.847067200737982, 30.437695679017384 ], [ 78.84728507071614, 30.440442440556293 ], [ 78.847674919227927, 30.442562331697243 ], [ 78.848939287556604, 30.4446462637212 ], [ 78.848777602834218, 30.445503171997967 ], [ 78.84813191410349, 30.44644568320879 ], [ 78.847798491153824, 30.447501005466417 ], [ 78.84739751846017, 30.448055661991468 ], [ 78.846501913942205, 30.448736519229964 ], [ 78.844023718251393, 30.44971015334183 ], [ 78.843367720640131, 30.450052839792161 ], [ 78.846152337279491, 30.451532755965538 ], [ 78.847843749031043, 30.453472518273877 ], [ 78.850336714239447, 30.455876964021257 ], [ 78.850555288944605, 30.456206200107019 ], [ 78.849810227722656, 30.458542392294703 ], [ 78.848768505154538, 30.460490557726711 ], [ 78.846836379484728, 30.462632484835105 ], [ 78.845143971372224, 30.463831871006544 ], [ 78.842759093804887, 30.464801000099847 ], [ 78.841628911428614, 30.465734333856727 ], [ 78.841482932610219, 30.466261977091932 ], [ 78.841883440260347, 30.467556461757507 ], [ 78.841810369205447, 30.468129228283633 ], [ 78.84156026088597, 30.468665908452657 ], [ 78.841305048652316, 30.468995064153095 ], [ 78.839320831070012, 30.470095041881851 ], [ 78.83720141314717, 30.470883803929514 ], [ 78.836841972812365, 30.471330209372745 ], [ 78.83626876093679, 30.472394432251797 ], [ 78.835924658417454, 30.473544380139252 ], [ 78.835216196382945, 30.474437251957728 ], [ 78.834075500303427, 30.475284795355748 ], [ 78.832081009495994, 30.47565401698045 ], [ 78.829602331408097, 30.475937287770261 ], [ 78.828451222800922, 30.476500635531043 ], [ 78.826175109849657, 30.477685990418838 ], [ 78.823810698754912, 30.478447388712361 ], [ 78.824184733795107, 30.480075674428175 ], [ 78.824850642406417, 30.481356816285171 ], [ 78.825719417001324, 30.483053005606546 ], [ 78.829499876214754, 30.48344218853315 ], [ 78.831765040579924, 30.483794729258481 ], [ 78.832665683953863, 30.484399411077941 ], [ 78.834299862301577, 30.486776753575239 ], [ 78.835439736276726, 30.488382771517806 ], [ 78.836522520395377, 30.489515100625265 ], [ 78.837620844057383, 30.490868441843261 ], [ 78.838136371851149, 30.490927237240264 ], [ 78.84033948356246, 30.49060760577132 ], [ 78.844214438068434, 30.489751610104992 ], [ 78.845245636923096, 30.489675208200044 ], [ 78.847390895620549, 30.490861883144294 ], [ 78.849974006061871, 30.490902914487062 ], [ 78.851749616891908, 30.492292381586282 ], [ 78.854186576513527, 30.494200600056974 ], [ 78.856779730817649, 30.496410936529291 ], [ 78.858617842723064, 30.498797078131325 ], [ 78.85916721268994, 30.499859309491679 ], [ 78.859167247013943, 30.499859363656832 ], [ 78.86008634636498, 30.501098065362314 ], [ 78.861153925866049, 30.501905447328134 ], [ 78.861732000588347, 30.502676769297949 ], [ 78.862632837353118, 30.504548566052385 ], [ 78.862877502878717, 30.505455101653279 ], [ 78.863179516674677, 30.506109140939849 ], [ 78.864679574599393, 30.507385630502061 ], [ 78.865528494720124, 30.507981052446556 ], [ 78.866398299123247, 30.509090533633021 ], [ 78.866939848743328, 30.511426899041876 ], [ 78.867476269969444, 30.512748365810172 ], [ 78.868205468615287, 30.514227726552864 ], [ 78.868215850665877, 30.514656165314126 ], [ 78.86810119789061, 30.514976437103208 ], [ 78.866725899043786, 30.516085810784876 ], [ 78.866382054029984, 30.516816489159012 ], [ 78.866481032894342, 30.517150218983492 ], [ 78.867402994741866, 30.517732051991381 ], [ 78.867705132413661, 30.517957612226407 ], [ 78.867793682283505, 30.518255257808161 ], [ 78.867778036261541, 30.51848527903557 ], [ 78.867694644382965, 30.518769390742314 ], [ 78.867256976470074, 30.519270016323656 ], [ 78.866188965248767, 30.521033421513465 ], [ 78.864115134743827, 30.524560259558349 ], [ 78.862744694411674, 30.527658578870689 ], [ 78.862176555419239, 30.529385935434949 ], [ 78.86246826750552, 30.530278949861557 ], [ 78.86270772371283, 30.531171963322034 ], [ 78.862644944133848, 30.534090003898086 ], [ 78.862629061208352, 30.535533315020345 ], [ 78.862649748380733, 30.537391422537024 ], [ 78.862399379150887, 30.539060189335451 ], [ 78.862180422825006, 30.540111010633645 ], [ 78.862269004373445, 30.540620668839676 ], [ 78.862586648220201, 30.541906083538102 ], [ 78.862445862932105, 30.542420260688946 ], [ 78.861950815231921, 30.542812607006553 ], [ 78.86038755708671, 30.543669320501849 ], [ 78.860142568716313, 30.544192451364495 ], [ 78.859840167620604, 30.545085485642407 ], [ 78.859761783800707, 30.546456584430622 ], [ 78.859485457484794, 30.547507348935966 ], [ 78.858474192135574, 30.549735243184323 ], [ 78.858349050793876, 30.550447828164362 ], [ 78.858718900138882, 30.551309277960861 ], [ 78.860172539007735, 30.552522753379659 ], [ 78.861636818761511, 30.55335721334405 ], [ 78.862350709274978, 30.553790257638429 ], [ 78.862996864282977, 30.554444345997389 ], [ 78.863377189245938, 30.555229086941807 ], [ 78.863611544828871, 30.556505469815125 ], [ 78.863736553875697, 30.557028705301796 ], [ 78.864236674773835, 30.558864297408459 ], [ 78.86502356318185, 30.559820558889474 ], [ 78.865878139938005, 30.561164576878287 ], [ 78.865919787416161, 30.561466803061652 ], [ 78.865732117628525, 30.561832132995434 ], [ 78.864533340588736, 30.562977606771298 ], [ 78.863287495285846, 30.564786010099407 ], [ 78.862766095073042, 30.566409651355002 ], [ 78.862859928779471, 30.566765974027607 ], [ 78.863500915758863, 30.567347811863968 ], [ 78.865001860348499, 30.568349153406931 ], [ 78.86793091700963, 30.570424022454066 ], [ 78.869280807226104, 30.571619278102379 ], [ 78.870500378155739, 30.572999397103118 ], [ 78.870818241075028, 30.574347941780211 ], [ 78.871500999600642, 30.57603922641076 ], [ 78.872064002406319, 30.577126186415839 ], [ 78.873127312677539, 30.578213130503606 ], [ 78.875530301634555, 30.579651815835028 ], [ 78.876906471626356, 30.580810885858824 ], [ 78.878287882259542, 30.581334057035818 ], [ 78.880842193045751, 30.581857145325881 ], [ 78.883969826376102, 30.582402671458201 ], [ 78.886154082981989, 30.582961700921796 ], [ 78.887035150864619, 30.5834713218803 ], [ 78.888041430173985, 30.584833274369775 ], [ 78.889219702272314, 30.585938057757243 ], [ 78.889840185179452, 30.586975337533158 ], [ 78.889778015229751, 30.589383773070757 ], [ 78.88990881940741, 30.592256617449248 ], [ 78.890524447630213, 30.594818313966506 ], [ 78.8905401704952, 30.595702322481547 ], [ 78.889070300107875, 30.597641855277143 ], [ 78.887256450374721, 30.60101555786957 ], [ 78.886130490249627, 30.603004631929053 ], [ 78.886182678369451, 30.603293281491194 ], [ 78.886266096827896, 30.603505206416887 ], [ 78.887528030740214, 30.604709303884619 ], [ 78.890359670837753, 30.607306786700086 ], [ 78.891892810522691, 30.608691142921405 ], [ 78.894020613166802, 30.610463385084199 ], [ 78.895105440155064, 30.611572634882478 ], [ 78.896294541909853, 30.612835267828345 ], [ 78.896962124678453, 30.613335768867145 ], [ 78.898354447359395, 30.613660246694906 ], [ 78.899480805221572, 30.61380437054704 ], [ 78.90083153693422, 30.614372423299841 ], [ 78.901488688421182, 30.614872833508223 ], [ 78.902620643235508, 30.616063296590593 ], [ 78.902902638692453, 30.617434248397121 ], [ 78.903262903559352, 30.618913542779886 ], [ 78.903284388544961, 30.621164024348044 ], [ 78.903274073900477, 30.621723339110197 ], [ 78.903383779757164, 30.622165225136207 ], [ 78.90372808286979, 30.622449335073622 ], [ 78.905485899196748, 30.623747856201756 ], [ 78.906722289337509, 30.624911099607786 ], [ 78.907035389672089, 30.625542478349818 ], [ 78.907922522148468, 30.627247026536367 ], [ 78.908976569482547, 30.628780172462111 ], [ 78.909315736930793, 30.629488193298695 ], [ 78.911474925129411, 30.629577735023066 ], [ 78.912293719137466, 30.629478306904215 ], [ 78.914066681409949, 30.628837373881126 ], [ 78.915474252353008, 30.62755603376322 ], [ 78.916407036084678, 30.62592312082662 ], [ 78.917116188555269, 30.625507980288265 ], [ 78.918101519820695, 30.624795061390863 ], [ 78.920723894343439, 30.623098305589707 ], [ 78.922746537925676, 30.621685909573525 ], [ 78.92515460650371, 30.61934429686756 ], [ 78.925117711369097, 30.618460291508697 ], [ 78.924872239973567, 30.617914727035597 ], [ 78.92475214634608, 30.617468214561573 ], [ 78.925481882068368, 30.616818519163097 ], [ 78.925507871509637, 30.616818507843114 ], [ 78.926628722066269, 30.616119026839399 ], [ 78.927796052425791, 30.614769991632162 ], [ 78.928832646104084, 30.612979111803458 ], [ 78.930072666345595, 30.611093336375127 ], [ 78.930452720320474, 30.610087418222971 ], [ 78.930692042215099, 30.609203381182464 ], [ 78.930915263269824, 30.607408223232184 ], [ 78.931070984715774, 30.606262571730309 ], [ 78.93159155939793, 30.604841710086337 ], [ 78.932216328281086, 30.603294420306984 ], [ 78.932878051399683, 30.602495830172458 ], [ 78.935557364563081, 30.601579120488985 ], [ 78.937658001844412, 30.600707662878307 ], [ 78.938663781252458, 30.599963007094104 ], [ 78.940065409120407, 30.598798666434458 ], [ 78.941497674600967, 30.596633102492223 ], [ 78.942117060476804, 30.595090281543175 ], [ 78.941917914147808, 30.593633699980948 ], [ 78.942417804927956, 30.592713383939362 ], [ 78.944037475131978, 30.590385235379514 ], [ 78.94582959792065, 30.588774222363956 ], [ 78.945850511745235, 30.58877417498142 ], [ 78.947856900176276, 30.587884590833816 ], [ 78.949737893838872, 30.586724419688043 ], [ 78.950763815245907, 30.585384275057383 ], [ 78.950674630651108, 30.584640233481448 ], [ 78.951372406513556, 30.583737777520387 ], [ 78.953358000333694, 30.583127698244748 ], [ 78.95723085440504, 30.582778056973059 ] ] ] ] } }
]
}
